TIANMU-1 08             
1 57400U 23101B   26066.00237819  .00000346  00000+0  14775-4 0  9993
2 57400  97.2717 118.7901 0006380 134.2174 225.9592 15.29204229146020
STARLINK-33581          
1 62784U 25015AC  26068.98755876  .00017842  00000+0  61300-3 0  9991
2 62784  53.1576 321.2896 0001170  82.9517 277.1616 15.30203510 64525
